ONEWEB-0528             
1 54643U 22166B   23358.69722252  .00000010  00000+0 -62450-5 0  9998
2 54643  87.9247  64.2313 0001814 110.0164 250.1166 13.21826551 52379
ONEWEB-0539             
1 54644U 22166C   23358.58210145 -.00000018  00000+0 -75256-4 0  9996
2 54644  87.9246  64.2542 0001579 102.7790 257.3520 13.21826595 51903
ONEWEB-0540             
1 54645U 22166D   23358.57658516 -.00000016  00000+0 -70811-4 0  9994
2 54645  87.9249  64.2828 0001749 109.0944 251.0379 13.21825202 51899
ONEWEB-0542             
1 54646U 22166E   23358.74296138  .00000402  00000+0  94259-3 0  9990
2 54646  87.9248  64.2239 0001431  79.7067 280.4228 13.21812290 52389
ONEWEB-0545             
1 54647U 22166F   23358.55844835 -.00000117  00000+0 -31493-3 0  9999
2 54647  87.9236  64.2977 0001168 100.3165 259.8100 13.21824518 51860
ONEWEB-0580             
1 54648U 22166G   23358.60733123  .00000095  00000+0  19844-3 0  9992
2 54648  87.9243  64.2433 0001387  85.8941 274.2352 13.21825022 51915
ONEWEB-0582             
1 54649U 22166H   23358.57421147 -.00000045  00000+0 -13967-3 0  9996
2 54649  87.9248  64.2917 0001563 113.0225 247.1074 13.21824463 51887
ONEWEB-0583             
1 54650U 22166J   23358.58525412 -.00000011  00000+0 -57198-4 0  9997
2 54650  87.9237  64.2936 0002143 110.4417 249.6948 13.21825212 51898
